{
  "type": "FeatureCollection",
  "features": [
    {
      "type": "Feature",
      "properties": {
        "norad_id": 40128,
        "name": "GSAT0201 (GALILEO 5)",
        "group": "gnss",
        "lat": -30.521078452988004,
        "lon": -110.2729781053779,
        "alt_km": 25096.080147061497,
        "timestamp": "2025-12-27T09:28:56.718544+00:00",
        "meta_object_name": "GSAT0201 (GALILEO 5)",
        "meta_object_id": "2014-050A",
        "meta_epoch": "2025-12-25T20:43:24.583008",
        "meta_mean_motion": 1.85519608,
        "meta_eccentricity": 0.16491868,
        "meta_inclination": 49.0615,
        "meta_ra_of_asc_node": 280.5285,
        "meta_arg_of_pericenter": 172.7701,
        "meta_mean_anomaly": 189.9925,
        "meta_ephemeris_type": 0,
        "meta_classification_type": "U",
        "meta_norad_cat_id": 40128,
        "meta_element_set_no": 999,
        "meta_rev_at_epoch": 7510,
        "meta_bstar": 0,
        "meta_mean_motion_dot": -4.2e-07,
        "meta_mean_motion_ddot": 0,
        "tle_line1": "1 40128U 14050A   25359.86347897 -.00000042  00000+0  00000+0 0  9996",
        "tle_line2": "2 40128  49.0615 280.5285 1649186 172.7701 189.9925  1.85519608 75101"
      },
      "geometry": {
        "type": "Point",
        "coordinates": [
          -110.2729781053779,
          -30.521078452988004
        ]
      }
    },
    {
      "type": "Feature",
      "properties": {
        "norad_id": 40129,
        "name": "GSAT0202 (GALILEO 6)",
        "group": "gnss",
        "lat": 40.75574317104899,
        "lon": 51.24308478404855,
        "alt_km": 18385.237245570235,
        "timestamp": "2025-12-27T09:28:56.718555+00:00",
        "meta_object_name": "GSAT0202 (GALILEO 6)",
        "meta_object_id": "2014-050B",
        "meta_epoch": "2025-12-26T02:52:20.313984",
        "meta_mean_motion": 1.85520261,
        "meta_eccentricity": 0.1649751,
        "meta_inclination": 49.0773,
        "meta_ra_of_asc_node": 279.6017,
        "meta_arg_of_pericenter": 173.5155,
        "meta_mean_anomaly": 188.9707,
        "meta_ephemeris_type": 0,
        "meta_classification_type": "U",
        "meta_norad_cat_id": 40129,
        "meta_element_set_no": 999,
        "meta_rev_at_epoch": 7727,
        "meta_bstar": 0,
        "meta_mean_motion_dot": -4.2e-07,
        "meta_mean_motion_ddot": 0,
        "tle_line1": "1 40129U 14050B   25360.11967956 -.00000042  00000+0  00000+0 0  9991",
        "tle_line2": "2 40129  49.0773 279.6017 1649751 173.5155 188.9707  1.85520261 77273"
      },
      "geometry": {
        "type": "Point",
        "coordinates": [
          51.24308478404855,
          40.75574317104899
        ]
      }
    },
    {
      "type": "Feature",
      "properties": {
        "norad_id": 40269,
        "name": "IRNSS-1C",
        "group": "gnss",
        "lat": -4.594498711524916,
        "lon": -38.92355244170744,
        "alt_km": 35837.534776921995,
        "timestamp": "2025-12-27T09:28:56.718568+00:00",
        "meta_object_name": "IRNSS-1C",
        "meta_object_id": "2014-061A",
        "meta_epoch": "2025-12-26T18:35:45.832128",
        "meta_mean_motion": 1.00272984,
        "meta_eccentricity": 0.00181285,
        "meta_inclination": 6.0777,
        "meta_ra_of_asc_node": 92.3405,
        "meta_arg_of_pericenter": 0.7543,
        "meta_mean_anomaly": 4.3882,
        "meta_ephemeris_type": 0,
        "meta_classification_type": "U",
        "meta_norad_cat_id": 40269,
        "meta_element_set_no": 999,
        "meta_rev_at_epoch": 4096,
        "meta_bstar": 0,
        "meta_mean_motion_dot": -1.42e-06,
        "meta_mean_motion_ddot": 0,
        "tle_line1": "1 40269U 14061A   25360.77483602 -.00000142  00000+0  00000+0 0  9992",
        "tle_line2": "2 40269   6.0777  92.3405 0018128   0.7543   4.3882  1.00272984 40969"
      },
      "geometry": {
        "type": "Point",
        "coordinates": [
          -38.92355244170744,
          -4.594498711524916
        ]
      }
    },
    {
      "type": "Feature",
      "properties": {
        "norad_id": 40294,
        "name": "GPS BIIF-8  (PRN 03)",
        "group": "gnss",
        "lat": -13.024409717615617,
        "lon": 28.908541281734873,
        "alt_km": 20167.51241211757,
        "timestamp": "2025-12-27T09:28:56.718579+00:00",
        "meta_object_name": "GPS BIIF-8  (PRN 03)",
        "meta_object_id": "2014-068A",
        "meta_epoch": "2025-12-26T10:04:05.409984",
        "meta_mean_motion": 2.00565591,
        "meta_eccentricity": 0.0060863,
        "meta_inclination": 56.8679,
        "meta_ra_of_asc_node": 37.6169,
        "meta_arg_of_pericenter": 68.8991,
        "meta_mean_anomaly": 291.813,
        "meta_ephemeris_type": 0,
        "meta_classification_type": "U",
        "meta_norad_cat_id": 40294,
        "meta_element_set_no": 999,
        "meta_rev_at_epoch": 8174,
        "meta_bstar": 0,
        "meta_mean_motion_dot": -4.9e-07,
        "meta_mean_motion_ddot": 0,
        "tle_line1": "1 40294U 14068A   25360.41950706 -.00000049  00000+0  00000+0 0  9998",
        "tle_line2": "2 40294  56.8679  37.6169 0060863  68.8991 291.8130  2.00565591 81745"
      },
      "geometry": {
        "type": "Point",
        "coordinates": [
          28.908541281734873,
          -13.024409717615617
        ]
      }
    },
    {
      "type": "Feature",
      "properties": {
        "norad_id": 40315,
        "name": "COSMOS 2501 (702K)",
        "group": "gnss",
        "lat": -50.76814316689572,
        "lon": 53.77537960538972,
        "alt_km": 19094.185880674366,
        "timestamp": "2025-12-27T09:28:56.718593+00:00",
        "meta_object_name": "COSMOS 2501 (702K)",
        "meta_object_id": "2014-075A",
        "meta_epoch": "2025-12-26T03:27:24.522048",
        "meta_mean_motion": 2.13101463,
        "meta_eccentricity": 0.0020084,
        "meta_inclination": 63.6159,
        "meta_ra_of_asc_node": 196.3605,
        "meta_arg_of_pericenter": 203.9081,
        "meta_mean_anomaly": 156.0501,
        "meta_ephemeris_type": 0,
        "meta_classification_type": "U",
        "meta_norad_cat_id": 40315,
        "meta_element_set_no": 999,
        "meta_rev_at_epoch": 8616,
        "meta_bstar": 0,
        "meta_mean_motion_dot": 1.12e-06,
        "meta_mean_motion_ddot": 0,
        "tle_line1": "1 40315U 14075A   25360.14403382  .00000112  00000+0  00000+0 0  9993",
        "tle_line2": "2 40315  63.6159 196.3605 0020084 203.9081 156.0501  2.13101463 86162"
      },
      "geometry": {
        "type": "Point",
        "coordinates": [
          53.77537960538972,
          -50.76814316689572
        ]
      }
    },
    {
      "type": "Feature",
      "properties": {
        "norad_id": 40534,
        "name": "GPS BIIF-9  (PRN 26)",
        "group": "gnss",
        "lat": -49.09861029075093,
        "lon": 91.09075276261211,
        "alt_km": 20429.700768123883,
        "timestamp": "2025-12-27T09:28:56.718607+00:00",
        "meta_object_name": "GPS BIIF-9  (PRN 26)",
        "meta_object_id": "2015-013A",
        "meta_epoch": "2025-12-26T13:11:10.214592",
        "meta_mean_motion": 2.00561683,
        "meta_eccentricity": 0.010755,
        "meta_inclination": 53.1959,
        "meta_ra_of_asc_node": 211.3182,
        "meta_arg_of_pericenter": 38.8079,
        "meta_mean_anomaly": 322.028,
        "meta_ephemeris_type": 0,
        "meta_classification_type": "U",
        "meta_norad_cat_id": 40534,
        "meta_element_set_no": 999,
        "meta_rev_at_epoch": 7836,
        "meta_bstar": 0,
        "meta_mean_motion_dot": 8.8e-07,
        "meta_mean_motion_ddot": 0,
        "tle_line1": "1 40534U 15013A   25360.54942378  .00000088  00000+0  00000+0 0  9998",
        "tle_line2": "2 40534  53.1959 211.3182 0107550  38.8079 322.0280  2.00561683 78363"
      },
      "geometry": {
        "type": "Point",
        "coordinates": [
          91.09075276261211,
          -49.09861029075093
        ]
      }
    },
    {
      "type": "Feature",
      "properties": {
        "norad_id": 40544,
        "name": "GSAT0203 (GALILEO 7)",
        "group": "gnss",
        "lat": 26.026641951806617,
        "lon": 4.884337800070631,
        "alt_km": 23227.33028184057,
        "timestamp": "2025-12-27T09:28:56.718622+00:00",
        "meta_object_name": "GSAT0203 (GALILEO 7)",
        "meta_object_id": "2015-017A",
        "meta_epoch": "2025-12-26T18:10:04.465632",
        "meta_mean_motion": 1.70475666,
        "meta_eccentricity": 0.000646,
        "meta_inclination": 56.8428,
        "meta_ra_of_asc_node": 346.298,
        "meta_arg_of_pericenter": 275.3549,
        "meta_mean_anomaly": 84.5807,
        "meta_ephemeris_type": 0,
        "meta_classification_type": "U",
        "meta_norad_cat_id": 40544,
        "meta_element_set_no": 999,
        "meta_rev_at_epoch": 6626,
        "meta_bstar": 0,
        "meta_mean_motion_dot": -6.1e-07,
        "meta_mean_motion_ddot": 0,
        "tle_line1": "1 40544U 15017A   25360.75699613 -.00000061  00000+0  00000+0 0  9999",
        "tle_line2": "2 40544  56.8428 346.2980 0006460 275.3549  84.5807  1.70475666 66269"
      },
      "geometry": {
        "type": "Point",
        "coordinates": [
          4.884337800070631,
          26.026641951806617
        ]
      }
    }
  ]
}